     2.10           G: GLONASS NAV DATA                     RINEX VERSION / TYPE
teqc  2015Jun23                         20220226 01:25:41UTCPGM / RUN BY / DATE
Linux 2.4.21-27.ELsmp|Opteron|gcc -static|Linux x86_64|=+   COMMENT
  2022     2     2   -0.000000000000D+00                    CORR TO SYSTEM TIME
                                                            END OF HEADER
 4 22  2  3  4 15  0.0 1.261485740542D-04 1.818989403546D-12 1.440000000000D+04
    3.159387207031D+03-7.832202911377D-01-9.313225746155D-10 0.000000000000D+00
    1.694566162109D+04 2.452967643738D+00-9.313225746155D-10 6.000000000000D+00
    1.882419921875D+04-2.080715179443D+00-2.793967723846D-09 0.000000000000D+00
14 22  2  3  4 15  0.0 7.392000406981D-05 0.000000000000D+00 1.440000000000D+04
    4.234108886719D+03-1.495965957642D+00-9.313225746155D-10 0.000000000000D+00
    1.801645654297D+04-1.882039070129D+00-9.313225746155D-10-7.000000000000D+00
    1.756382958984D+04 2.290790557861D+00-2.793967723846D-09 0.000000000000D+00
15 22  2  3  4 15  0.0 9.846501052380D-05-0.000000000000D+00 1.440000000000D+04
    1.562617724609D+04-7.931232452393D-02-1.862645149231D-09 0.000000000000D+00
    2.004056005859D+04-3.239765167236D-01-1.862645149231D-09 0.000000000000D+00
    2.192216308594D+03 3.548231124878D+00-0.000000000000D+00 0.000000000000D+00
17 22  2  3  4 15  0.0 4.982510581613D-04 2.728484105319D-12 1.440000000000D+04
   -7.315629394531D+03-2.916523933411D+00-3.725290298462D-09 0.000000000000D+00
    1.126367822266D+04 5.904817581177D-01 2.793967723846D-09 4.000000000000D+00
   -2.167956445312D+04 1.287084579468D+00 9.313225746155D-10 0.000000000000D+00
24 22  2  3  4 15  0.0 7.849652320147D-05 1.818989403546D-12 1.443000000000D+04
   -2.218002832031D+04-1.276757240295D+00-3.725290298462D-09 0.000000000000D+00
    8.130009277344D+03 3.754138946533D-01 4.656612873077D-09 2.000000000000D+00
   -9.613363769531D+03 3.254818916321D+00-9.313225746155D-10 0.000000000000D+00
 2 22  2  3  4 45  0.0 5.085049197078D-04 0.000000000000D+00 1.620000000000D+04
   -1.170103173828D+04 6.418123245239D-01-3.725290298462D-09 0.000000000000D+00
    1.424261279297D+04-2.332403182983D+00 3.725290298462D-09-4.000000000000D+00
   -1.755790478516D+04-2.320175170898D+00 0.000000000000D+00 0.000000000000D+00
 3 22  2  3  4 45  0.0 5.093589425087D-05 0.000000000000D+00 1.620000000000D+04
   -6.379798828125D+03 2.190113067627D-01-4.656612873077D-09 0.000000000000D+00
    2.457845996094D+04-2.432422637939D-01 2.793967723846D-09 5.000000000000D+00
   -2.030072753906D+03-3.562615394592D+00-1.862645149231D-09 0.000000000000D+00
 4 22  2  3  4 45  0.0 1.261513680220D-04 1.818989403546D-12 1.620000000000D+04
    2.211331542969D+03-2.868471145630D-01-2.793967723846D-09 0.000000000000D+00
    2.095035351562D+04 1.952328681946D+00 0.000000000000D+00 6.000000000000D+00
    1.440074707031D+04-2.802464485168D+00-2.793967723846D-09 0.000000000000D+00
14 22  2  3  4 45  0.0 7.392093539238D-05 0.000000000000D+00 1.620000000000D+04
    9.873496093750D+02-2.096551895142D+00-9.313225746155D-10 0.000000000000D+00
    1.452101611328D+04-1.955794334412D+00-0.000000000000D+00-7.000000000000D+00
    2.095560156250D+04 1.453396797180D+00-2.793967723846D-09 0.000000000000D+00
15 22  2  3  4 45  0.0 9.846407920122D-05-0.000000000000D+00 1.620000000000D+04
    1.489018896484D+04-7.584638595581D-01-1.862645149231D-09 0.000000000000D+00
    1.892874804688D+04-8.752498626709D-01-1.862645149231D-09 0.000000000000D+00
    8.411742187500D+03 3.317492485046D+00-9.313225746155D-10 0.000000000000D+00
17 22  2  3  4 45  0.0 4.982566460967D-04 2.728484105319D-12 1.620000000000D+04
   -1.212598388672D+04-2.388099670410D+00-3.725290298462D-09 0.000000000000D+00
    1.262519873047D+04 8.915243148804D-01 4.656612873077D-09 4.000000000000D+00
   -1.855443408203D+04 2.162641525269D+00 0.000000000000D+00 0.000000000000D+00
24 22  2  3  4 45  0.0 7.849931716919D-05 1.818989403546D-12 1.620000000000D+04
   -2.369814306641D+04-4.043960571289D-01-2.793967723846D-09 0.000000000000D+00
    8.786217773438D+03 3.117647171021D-01 4.656612873077D-09 2.000000000000D+00
   -3.458625000000D+03 3.539332389832D+00-1.862645149231D-09 0.000000000000D+00
 2 22  2  3  5 15  0.0 5.085067823529D-04 0.000000000000D+00 1.800000000000D+04
   -1.079736328125D+04 3.335227966309D-01-1.862645149231D-09 0.000000000000D+00
    9.524316894531D+03-2.869860649109D+00 4.656612873077D-09-4.000000000000D+00
   -2.099718994141D+04-1.476350784302D+00 9.313225746155D-10 0.000000000000D+00
 3 22  2  3  5 15  0.0 5.093682557344D-05 0.000000000000D+00 1.800000000000D+04
   -5.923231445312D+03 2.470207214355D-01-3.725290298462D-09 0.000000000000D+00
    2.334150488281D+04-1.125555992126D+00 3.725290298462D-09 5.000000000000D+00
   -8.280704101562D+03-3.337182044983D+00-9.313225746155D-10 0.000000000000D+00
 4 22  2  3  5 15  0.0 1.261541619897D-04 1.818989403546D-12 1.800000000000D+04
    2.038939453125D+03 6.414985656738D-02-3.725290298462D-09 0.000000000000D+00
    2.383482470703D+04 1.220891952515D+00 1.862645149231D-09 6.000000000000D+00
    8.865208496094D+03-3.308300018311D+00-2.793967723846D-09 0.000000000000D+00
14 22  2  3  5 15  0.0 7.392186671495D-05 0.000000000000D+00 1.800000000000D+04
   -3.228139648438D+03-2.555555343628D+00-0.000000000000D+00 0.000000000000D+00
    1.113142138672D+04-1.771248817444D+00-0.000000000000D+00-7.000000000000D+00
    2.272850097656D+04 5.036993026733D-01-2.793967723846D-09 0.000000000000D+00
15 22  2  3  5 15  0.0 9.846407920122D-05-0.000000000000D+00 1.800000000000D+04
    1.285495458984D+04-1.505018234253D+00-1.862645149231D-09 0.000000000000D+00
    1.703550000000D+04-1.184895515442D+00-9.313225746155D-10 0.000000000000D+00
    1.398099951172D+04 2.830440521240D+00-1.862645149231D-09 0.000000000000D+00
17 22  2  3  5 15  0.0 4.982631653547D-04 2.728484105319D-12 1.800000000000D+04
   -1.579521826172D+04-1.664672851562D+00-2.793967723846D-09 0.000000000000D+00
    1.434101025391D+04 9.736003875732D-01 5.587935447693D-09 4.000000000000D+00
   -1.399491699219D+04 2.870536804199D+00-0.000000000000D+00 0.000000000000D+00
24 22  2  3  5 15  0.0 7.850304245949D-05 1.818989403546D-12 1.800000000000D+04
   -2.365120166016D+04 4.426021575928D-01-9.313225746155D-10 0.000000000000D+00
    9.104057128906D+03 2.470016479492D-03 4.656612873077D-09 2.000000000000D+00
    2.963562500000D+03 3.550111770630D+00-1.862645149231D-09 0.000000000000D+00
18 22  2  3  5 15  0.0 1.059677451849D-04 9.094947017729D-13 1.842000000000D+04
    1.726533203125D+02-2.844998359680D+00-2.793967723846D-09 0.000000000000D+00
    1.120544775391D+04 1.341361999512D+00 2.793967723846D-09-3.000000000000D+00
   -2.288829785156D+04 6.397809982300D-01 1.862645149231D-09 0.000000000000D+00
 5 22  2  3  5 15  0.0 8.705165237188D-05 9.094947017729D-13 1.944000000000D+04
    8.884677734375D+03-1.886911392212D-01-0.000000000000D+00 0.000000000000D+00
    1.119821875000D+04 2.887257575989D+00-1.862645149231D-09 1.000000000000D+00
    2.112997265625D+04-1.453866958618D+00-2.793967723846D-09 0.000000000000D+00
18 22  2  3  5 45  0.0 1.059696078300D-04 0.000000000000D+00 1.980000000000D+04
   -4.561322753906D+03-2.376494407654D+00-1.862645149231D-09 0.000000000000D+00
    1.389317089844D+04 1.609195709229D+00 4.656612873077D-09-3.000000000000D+00
   -2.086428320312D+04 1.594607353210D+00 9.313225746155D-10 0.000000000000D+00
 3 22  2  3  5 45  0.0 5.093682557344D-05-0.000000000000D+00 1.980000000000D+04
   -5.632867187500D+03 3.928184509277D-02-2.793967723846D-09 0.000000000000D+00
    2.058170898438D+04-1.916229248047D+00 4.656612873077D-09 5.000000000000D+00
   -1.388775439453D+04-2.852153778076D+00-0.000000000000D+00 0.000000000000D+00
 4 22  2  3  5 45  0.0 1.261569559574D-04 1.818989403546D-12 1.980000000000D+04
    2.312179199219D+03 1.996898651123D-01-3.725290298462D-09 0.000000000000D+00
    2.526164941406D+04 3.503417968750D-01 3.725290298462D-09 6.000000000000D+00
    2.644494628906D+03-3.558752059937D+00-1.862645149231D-09 0.000000000000D+00
 5 22  2  3  5 45  0.0 8.705258369446D-05 9.094947017729D-13 1.980000000000D+04
    8.928215820312D+03 2.163038253784D-01-1.862645149231D-09 0.000000000000D+00
    1.601581738281D+04 2.420717239380D+00-0.000000000000D+00 1.000000000000D+00
    1.773018896484D+04-2.299236297607D+00-2.793967723846D-09 0.000000000000D+00
15 22  2  3  5 45  0.0 9.846314787865D-05-0.000000000000D+00 1.980000000000D+04
    9.498834960938D+03-2.207155227661D+00-9.313225746155D-10 0.000000000000D+00
    1.482205566406D+04-1.231191635132D+00-0.000000000000D+00 0.000000000000D+00
    1.846990869141D+04 2.124924659729D+00-2.793967723846D-09 0.000000000000D+00
17 22  2  3  5 45  0.0 4.982696846128D-04 2.728484105319D-12 1.980000000000D+04
   -1.806602294922D+04-8.536243438721D-01-1.862645149231D-09 0.000000000000D+00
    1.597251953125D+04 7.944917678833D-01 5.587935447693D-09 4.000000000000D+00
   -8.354119628906D+03 3.356314659119D+00-9.313225746155D-10 0.000000000000D+00
24 22  2  3  5 45  0.0 7.850583642721D-05 1.818989403546D-12 1.980000000000D+04
   -2.218702099609D+04 1.153342247009D+00 0.000000000000D+00 0.000000000000D+00
    8.670997558594D+03-5.123710632324D-01 3.725290298462D-09 2.000000000000D+00
    9.156818359375D+03 3.286672592163D+00-2.793967723846D-09 0.000000000000D+00
15 22  2  3  6 15  0.0 9.846314787865D-05-0.000000000000D+00 2.160000000000D+04
    5.001564453125D+03-2.756053924561D+00-9.313225746155D-10 0.000000000000D+00
    1.274800195312D+04-1.037547111511D+00-0.000000000000D+00 0.000000000000D+00
    2.153216748047D+04 1.255565643311D+00-2.793967723846D-09 0.000000000000D+00
 4 22  2  3  6 15  0.0 1.261597499251D-04 9.094947017729D-13 2.160000000000D+04
    2.609640136719D+03 8.980274200439D-02-2.793967723846D-09 0.000000000000D+00
    2.508065234375D+04-5.457525253296D-01 4.656612873077D-09 6.000000000000D+00
   -3.780739746094D+03-3.533989906311D+00-9.313225746155D-10 0.000000000000D+00
